*******************************************************************************
JPL/HORIZONS                 694 Ekard (A909 VC)           2020-Jun-22 09:25:30
Rec #:     694 (+COV) Soln.date: 2020-May-20_01:10:56   # obs: 2783 (1909-2020)
 
IAU76/J2000 helio. ecliptic osc. elements (au, days, deg., period=Julian yrs):
 
  EPOCH=  2456365.5 ! 2013-Mar-14.00 (TDB)         Residual RMS= .28174
   EC= .3243848533884278   QR= 1.804202956309734   TP= 2456708.0661363364
   OM= 230.3709989936812   W=  110.9002617039822   IN= 15.84289031547706
   A= 2.670459603160755    MA= 282.6305544870496   ADIST= 3.536716250011775
   PER= 4.36403            N= .225852573           ANGMOM= .02659079
   DAN= 2.70216            DDN= 2.14163            L= 342.0214313
   B= 14.7758253           MOID= .86413002         TP= 2014-Feb-19.5661363364
 
Asteroid physical parameters (km, seconds, rotational period in hours):
   GM= n.a.                RAD= 60.9455            ROTPER= 5.925
   H= 9.2                  G= .150                 B-V= .712
                           ALBEDO= .026            STYP= CP:
 
ASTEROID comments: 
1: soln ref.= JPL#33, OCC=0
2: source=ORB
*******************************************************************************
 
  
*******************************************************************************
Ephemeris / WWW_USER Mon Jun 22 09:25:30 2020 Pasadena, USA      / Horizons
*******************************************************************************
Target body name: 694 Ekard (A909 VC)             {source: JPL#33}
Center body name: Solar System Barycenter (0)     {source: DE431}
Center-site name: BODY CENTER
*******************************************************************************
Start time      : A.D. 1969-Jun-28 00:00:00.0000 TDB
Stop  time      : A.D. 2071-May-04 00:00:00.0000 TDB
Step-size       : 7200 minutes
*******************************************************************************
Center geodetic : 0.00000000,0.00000000,0.0000000 {E-lon(deg),Lat(deg),Alt(km)}
Center cylindric: 0.00000000,0.00000000,0.0000000 {E-lon(deg),Dxy(km),Dz(km)}
Center radii    : (undefined)                                                  
Small perturbers: Yes                             {source: SB431-N16}
Output units    : AU-D
Output type     : GEOMETRIC cartesian states
Output format   : 2 (position and velocity)
Reference frame : Ecliptic of J2000.0
*******************************************************************************
Initial IAU76/J2000 heliocentric ecliptic osculating elements (au, days, deg.):
  EPOCH=  2456365.5 ! 2013-Mar-14.00 (TDB)         Residual RMS= .28174        
   EC= .3243848533884278   QR= 1.804202956309734   TP= 2456708.0661363364      
   OM= 230.3709989936812   W=  110.9002617039822   IN= 15.84289031547706       
  Equivalent ICRF heliocentric equatorial cartesian coordinates (au, au/d):
   X=-1.880474539868715E+00  Y=-1.833477220371637E+00  Z=-8.447348335162383E-01
  VX= 8.996151305480943E-03 VY=-4.688893171821036E-03 VZ= 8.891144039257926E-04
Asteroid physical parameters (km, seconds, rotational period in hours):        
   GM= n.a.                RAD= 60.9455            ROTPER= 5.925               
   H= 9.2                  G= .150                 B-V= .712                   
                           ALBEDO= .026            STYP= CP:                   
*******************************************************************************
            JDTDB,            Calendar Date (TDB),        delta-T,                      X,                      Y,                      Z,                     VX,                     VY,                     VZ,
******************************************************************************************************************************************************************************************************************
$$SOE
2472180.500000000, A.D. 2056-Jul-01 00:00:00.0000,      69.184121, -2.843851189442618E+00, -1.303892545325690E+00, -3.693910220039795E-01,  5.368683305479463E-03, -6.537729199013276E-03,  2.378332685889990E-03,
2472185.500000000, A.D. 2056-Jul-06 00:00:00.0000,      69.183979, -2.816670419216607E+00, -1.336424262599468E+00, -3.574557784171295E-01,  5.503669753535751E-03, -6.474576507635156E-03,  2.395703383703092E-03,
2472190.500000000, A.D. 2056-Jul-11 00:00:00.0000,      69.183839, -2.788814054949910E+00, -1.368634462017279E+00, -3.454346113473263E-01,  5.638918337676602E-03, -6.409114743551521E-03,  2.412700157197399E-03,
2472195.500000000, A.D. 2056-Jul-16 00:00:00.0000,      69.183701, -2.760280825699020E+00, -1.400511487467074E+00, -3.333294196515510E-01,  5.774412965606900E-03, -6.341299396049779E-03,  2.429311230093852E-03,
2472200.500000000, A.D. 2056-Jul-21 00:00:00.0000,      69.183563, -2.731069544005264E+00, -1.432043457093141E+00, -3.211421623169426E-01,  5.910136323470490E-03, -6.271084674279624E-03,  2.445524323203098E-03,
2472205.500000000, A.D. 2056-Jul-26 00:00:00.0000,      69.183427, -2.701179112189248E+00, -1.463218256834251E+00, -3.088748610270756E-01,  6.046069800509580E-03, -6.198423482855448E-03,  2.461326633603463E-03,
2472210.500000000, A.D. 2056-Jul-31 00:00:00.0000,      69.183295, -2.670608529032528E+00, -1.494023533841081E+00, -2.965296028343705E-01,  6.182193409462118E-03, -6.123267398010290E-03,  2.476704813000024E-03,
2472215.500000000, A.D. 2056-Aug-05 00:00:00.0000,      69.183169, -2.639356896868667E+00, -1.524446689776278E+00, -2.841085429428794E-01,  6.318485702347599E-03, -6.045566644529363E-03,  2.491644945207090E-03,
2472220.500000000, A.D. 2056-Aug-10 00:00:00.0000,      69.183050, -2.607423429107658E+00, -1.554474874001466E+00, -2.716139076059196E-01,  6.454923681278542E-03, -5.965270073609089E-03,  2.506132522724372E-03,
2472225.500000000, A.D. 2056-Aug-15 00:00:00.0000,      69.182938, -2.574807458219351E+00, -1.584094976656043E+00, -2.590479971430885E-01,  6.591482704007784E-03, -5.882325141730676E-03,  2.520152422411930E-03,
2472230.500000000, A.D. 2056-Aug-20 00:00:00.0000,      69.182832, -2.541508444202710E+00, -1.613293621633087E+00, -2.464131890811086E-01,  6.728136384023620E-03, -5.796677890653603E-03,  2.533688880287671E-03,
2472235.500000000, A.D. 2056-Aug-25 00:00:00.0000,      69.182733, -2.507525983568510E+00, -1.642057159458425E+00, -2.337119414228394E-01,  6.864856485060138E-03, -5.708272928727366E-03,  2.546725465462387E-03,
2472240.500000000, A.D. 2056-Aug-30 00:00:00.0000,      69.182643, -2.472859818863739E+00, -1.670371660080207E+00, -2.209467960487906E-01,  7.001612809870723E-03, -5.617053413852084E-03,  2.559245053200793E-03,
2472245.500000000, A.D. 2056-Sep-04 00:00:00.0000,      69.182564, -2.437509848766970E+00, -1.698222905578331E+00, -2.081203822555960E-01,  7.138373083015822E-03, -5.522961038538476E-03,  2.571229797066873E-03,
2472250.500000000, A.D. 2056-Sep-09 00:00:00.0000,      69.182496, -2.401476138785531E+00, -1.725596382805492E+00, -1.952354204361724E-01,  7.275102827279206E-03, -5.425936017587630E-03,  2.582661100093799E-03,
2472255.500000000, A.D. 2056-Sep-14 00:00:00.0000,      69.182440, -2.364758932587555E+00, -1.752477275974247E+00, -1.822947259065825E-01,  7.411765233211674E-03, -5.325917078893792E-03,  2.593519584927026E-03,
2472260.500000000, A.D. 2056-Sep-19 00:00:00.0000,      69.182393, -2.327358664004580E+00, -1.778850459206800E+00, -1.693012128847947E-01,  7.548321021285925E-03, -5.222841457795190E-03,  2.603785062921238E-03,
2472265.500000000, A.D. 2056-Sep-24 00:00:00.0000,      69.182357, -2.289275969742757E+00, -1.804700489066187E+00, -1.562578986265487E-01,  7.684728296239057E-03, -5.116644895349318E-03,  2.613436502206613E-03,
2472270.500000000, A.D. 2056-Sep-29 00:00:00.0000,      69.182332, -2.250511702842620E+00, -1.830011597089633E+00, -1.431679077234171E-01,  7.820942393234396E-03, -5.007261641024226E-03,  2.622451994745916E-03,
2472275.500000000, A.D. 2056-Oct-04 00:00:00.0000,      69.182321, -2.211066946929539E+00, -1.854767682347787E+00, -1.300344765680683E-01,  7.956915715328495E-03, -4.894624460478326E-03,  2.630808722402885E-03,
2472280.500000000, A.D. 2056-Oct-09 00:00:00.0000,      69.182323, -2.170943031299779E+00, -1.878952304056866E+00, -1.168609579915307E-01,  8.092597561686331E-03, -4.778664649016647E-03,  2.638482922090284E-03,
2472285.500000000, A.D. 2056-Oct-14 00:00:00.0000,      69.182338, -2.130141546889275E+00, -1.902548674273155E+00, -1.036508260767784E-01,  8.227933946249124E-03, -4.659312051161894E-03,  2.645449850113254E-03,
2472290.500000000, A.D. 2056-Oct-19 00:00:00.0000,      69.182364, -2.088664363173208E+00, -1.925539650701816E+00, -9.040768115239493E-02,  8.362867406730581E-03, -4.536495086913598E-03,  2.651683745808204E-03,
2472295.500000000, A.D. 2056-Oct-24 00:00:00.0000,      69.182401, -2.046513646045122E+00, -1.947907729655333E+00, -7.713525496964745E-02,  8.497336803760832E-03, -4.410140785501466E-03,  2.657157794550434E-03,
2472300.500000000, A.D. 2056-Oct-29 00:00:00.0000,      69.182449, -2.003691876725481E+00, -1.969635039201502E+00, -6.383741606596945E-02,  8.631277109923166E-03, -4.280174827626906E-03,  2.661844090194476E-03,
2472305.500000000, A.D. 2056-Nov-03 00:00:00.0000,      69.182511, -1.960201871750985E+00, -1.990703332546208E+00, -5.051817531751052E-02,  8.764619188348971E-03, -4.146521597337695E-03,  2.665713597020948E-03,
2472310.500000000, A.D. 2056-Nov-08 00:00:00.0000,      69.182585, -1.916046804097866E+00, -2.011093981702231E+00, -3.718169168297350E-02,  8.897289560454479E-03, -4.009104244772394E-03,  2.668736111296552E-03,
2472315.500000000, A.D. 2056-Nov-13 00:00:00.0000,      69.182670, -1.871230225494561E+00, -2.030787971501554E+00, -2.383227814030378E-02,  9.029210162386335E-03, -3.867844761029212E-03,  2.670880222603279E-03,
